[Satellite]
VERSION=1.1
NAME=GSAT0222 (PRN E33)
NICKNAME=GSAT0222 (PRN E33)
TLE1=1 43565U 18060B   19317.35528341 -.00000062  00000-0  00000+0 0  9998
TLE2=2 43565  56.6690  46.9992 0004455 259.9053 100.0658  1.70476401  8162
STATUS=0
